OBJECT_NAME,OBJECT_ID,EPOCH,MEAN_MOTION,ECCENTRICITY,INCLINATION,RA_OF_ASC_NODE,ARG_OF_PERICENTER,MEAN_ANOMALY,EPHEMERIS_TYPE,CLASSIFICATION_TYPE,NORAD_CAT_ID,ELEMENT_SET_NO,REV_AT_EPOCH,BSTAR,MEAN_MOTION_DOT,MEAN_MOTION_DDOT
COSMOS 2058,1990-010A,2026-07-21T06:45:31.567104,15.12181367,.00084726,82.4675,275.7288,225.1844,134.8699,0,U,20465,999,96242,.13919212E-3,.2432E-4,0
SL-14 R/B,1990-010B,2026-07-21T18:22:57.539136,14.83665982,.00187971,82.5040,141.4729,214.2679,145.7325,0,U,20466,999,94836,.35469634E-4,.317E-5,0
SL-14 R/B,1990-018B,2026-07-22T04:23:19.491072,14.82237217,.00164743,82.5212,97.3987,14.8941,345.2755,0,U,20511,999,94250,.31986744E-4,.279E-5,0
HST,1990-037B,2026-07-22T05:08:13.927776,15.31110914,.00020355,28.4723,201.1073,171.5650,188.4980,0,U,20580,999,79394,.17637821E-3,.5689E-4,0
SL-16 R/B,1990-046B,2026-07-21T17:28:41.498112,14.15028957,.0012208,70.9998,16.4016,102.6802,257.5686,0,U,20625,999,86735,.16164857E-3,.266E-5,0
COSMOS 2084,1990-055A,2026-07-22T04:22:28.774272,15.06240362,.00089747,62.7873,236.6350,324.1272,35.9225,0,U,20663,999,95657,.97599918E-4,.1236E-4,0
SL-6 R/B(2),1990-055D,2026-07-22T06:52:16.973184,15.04110134,.00462182,62.7812,155.9269,9.9734,350.2271,0,U,20666,999,95843,.13602615E-3,.1728E-4,0
SL-8 R/B,1990-078B,2026-07-22T04:13:33.288672,14.93694667,.03427555,82.9031,129.9900,279.7388,76.5288,0,U,20775,999,82934,.31025962E-3,.10935E-3,0
SL-8 R/B,1991-006B,2026-07-22T03:46:54.149088,13.77510414,.00230112,82.9402,70.0146,21.6588,94.6065,0,U,21088,999,78258,.85778535E-4,.101E-5,0
OKEAN-3,1991-039A,2026-07-22T02:26:16.334016,15.05462288,.00130506,82.5151,206.5198,227.8748,132.1370,0,U,21397,999,88525,.15068415E-3,.2195E-4,0
COSMOS 2151,1991-042A,2026-07-22T06:29:17.831328,15.00527666,.00113365,82.4982,313.8237,330.5739,29.4846,0,U,21422,999,88337,.94031731E-4,.1213E-4,0
SL-14 R/B,1991-042B,2026-07-22T03:06:16.678080,14.81920825,.00175754,82.4928,94.1285,154.5809,205.6274,0,U,21423,999,87298,.29550878E-4,.258E-5,0
ERS-1,1991-050A,2026-07-22T01:22:42.852288,14.39537071,.00323586,98.7797,224.6069,161.6345,198.6018,0,U,21574,999,83506,.10529695E-3,.284E-5,0
ARIANE 40 R/B,1991-050F,2026-07-22T03:16:05.138112,14.42974579,.0003814,98.1857,250.1884,45.6723,314.4780,0,U,21610,999,83838,.67317035E-4,.184E-5,0
INTERCOSMOS 25,1991-086A,2026-07-22T02:37:42.883104,12.12247073,.14848945,82.5999,228.6770,187.0082,170.7953,0,U,21819,999,51297,.203119E-3,.1047E-4,0
SL-8 R/B,1992-008B,2026-07-21T21:01:03.014112,13.75985120,.00359665,82.9280,167.9972,118.5172,260.2241,0,U,21876,999,72787,.13617474E-3,.148E-5,0
SL-8 R/B,1992-020B,2026-07-22T03:02:02.688000,13.75549763,.00277755,82.9275,53.8997,283.3133,197.4979,0,U,21938,999,71961,-.28732361E-4,-.13E-6,0
USA 81,1992-023A,2026-07-22T03:11:32.205696,14.32406217,.0001667,85.0047,53.8317,65.1691,294.9675,0,U,21949,999,11403,.37812682E-4,.122E-5,0
COSMOS 2219,1992-076A,2026-07-22T03:14:05.068032,14.14105971,.00186664,71.0605,97.0173,347.1838,12.8807,0,U,22219,999,73738,-.1257726E-3,-.287E-5,0
SL-16 R/B,1992-076B,2026-07-22T04:32:40.900992,14.16877311,.00150118,70.9994,265.0483,253.1866,174.0356,0,U,22220,999,74088,-.91210609E-4,-.231E-5,0
COSMOS 2221,1992-080A,2026-07-22T07:23:20.577984,14.96618782,.0015948,82.5053,150.1166,98.5835,261.7195,0,U,22236,999,80092,.11118166E-3,.1296E-4,0
SL-16 R/B,1992-093B,2026-07-22T01:58:43.350816,14.15463375,.0002174,71.0211,82.1371,114.7847,245.3503,0,U,22285,999,73217,-.6456821E-4,-.174E-5,0
COSMOS 2228,1992-094A,2026-07-22T05:33:21.039264,14.97690227,.00168508,82.5184,108.4752,203.9586,156.0855,0,U,22286,999,79619,.10826206E-3,.1297E-4,0
SL-16 R/B,1993-016B,2026-07-21T15:24:42.207552,14.15316576,.00085041,71.0086,293.8403,126.4278,233.7631,0,U,22566,999,72112,.15439312E-3,.253E-5,0
COSMOS 2242,1993-024A,2026-07-22T06:34:24.385440,14.96999842,.00151744,82.5203,137.9749,207.1557,152.8874,0,U,22626,999,80052,.10890541E-3,.1282E-4,0
SL-16 R/B,1993-059B,2026-07-22T01:46:53.707872,14.17251033,.00170773,70.9902,87.7342,358.1872,1.9187,0,U,22803,999,69857,.13907755E-3,.233E-5,0
ARIANE 40 R/B,1993-061H,2026-07-22T04:32:23.776512,14.32920404,.00096791,98.4800,269.3160,242.5300,117.4901,0,U,22830,999,71336,.55031856E-4,.107E-5,0
COSMOS 2278,1994-023A,2026-07-22T04:24:55.985184,14.14395689,.0009251,71.0515,253.7034,195.2906,164.7939,0,U,23087,999,66382,.15266797E-3,.245E-5,0
SL-16 R/B,1994-023B,2026-07-22T04:04:56.432640,14.15028651,.00012235,70.9999,148.4642,99.4770,260.6491,0,U,23088,999,66511,.20391186E-3,.347E-5,0
SL-16 R/B,1994-074B,2026-07-22T01:04:41.088864,14.79528667,.00076176,97.6984,228.3118,134.5624,286.5042,0,U,23343,999,70711,.53170755E-4,.349E-5,0
