COSMOS 2058             
1 20465U 90010A   26202.28161536  .00002432  00000+0  13919-3 0  9997
2 20465  82.4675 275.7288 0008472 225.1844 134.8699 15.12181367962425
SL-14 R/B               
1 20466U 90010B   26202.76594374  .00000317  00000+0  35470-4 0  9998
2 20466  82.5040 141.4729 0018797 214.2679 145.7325 14.83665982948369
SL-14 R/B               
1 20511U 90018B   26203.18286448  .00000279  00000+0  31987-4 0  9990
2 20511  82.5212  97.3987 0016474  14.8941 345.2755 14.82237217942501
HST                     
1 20580U 90037B   26203.21405009  .00005689  00000+0  17638-3 0  9993
2 20580  28.4723 201.1073 0002035 171.5650 188.4980 15.31110914793948
SL-16 R/B               
1 20625U 90046B   26202.72825808  .00000266  00000+0  16165-3 0  9991
2 20625  70.9998  16.4016 0012208 102.6802 257.5686 14.15028957867359
COSMOS 2084             
1 20663U 90055A   26203.18227748  .00001236  00000+0  97600-4 0  9995
2 20663  62.7873 236.6350 0008974 324.1272  35.9225 15.06240362956573
SL-6 R/B(2)             
1 20666U 90055D   26203.28630756  .00001728  00000+0  13603-3 0  9992
2 20666  62.7812 155.9269 0046218   9.9734 350.2271 15.04110134958437
SL-8 R/B                
1 20775U 90078B   26203.17607973  .00010935  00000+0  31026-3 0  9990
2 20775  82.9031 129.9900 0342755 279.7388  76.5288 14.93694667829343
SL-8 R/B                
1 21088U 91006B   26203.15757117  .00000101  00000+0  85779-4 0  9993
2 21088  82.9402  70.0146 0023011  21.6588  94.6065 13.77510414782584
OKEAN-3                 
1 21397U 91039A   26203.10157794  .00002195  00000+0  15068-3 0  9990
2 21397  82.5151 206.5198 0013050 227.8748 132.1370 15.05462288885250
COSMOS 2151             
1 21422U 91042A   26203.27034527  .00001213  00000+0  94032-4 0  9998
2 21422  82.4982 313.8237 0011336 330.5739  29.4846 15.00527666883377
SL-14 R/B               
1 21423U 91042B   26203.12935970  .00000258  00000+0  29551-4 0  9997
2 21423  82.4928  94.1285 0017575 154.5809 205.6274 14.81920825872983
ERS-1                   
1 21574U 91050A   26203.05744042  .00000284  00000+0  10530-3 0  9998
2 21574  98.7797 224.6069 0032358 161.6345 198.6018 14.39537071835069
ARIANE 40 R/B           
1 21610U 91050F   26203.13617058  .00000184  00000+0  67317-4 0  9999
2 21610  98.1857 250.1884 0003814  45.6723 314.4780 14.42974579838380
INTERCOSMOS 25          
1 21819U 91086A   26203.10952411  .00001047  00000+0  20312-3 0  9993
2 21819  82.5999 228.6770 1484894 187.0082 170.7953 12.12247073512976
SL-8 R/B                
1 21876U 92008B   26202.87572933  .00000148  00000+0  13617-3 0  9992
2 21876  82.9280 167.9972 0035966 118.5172 260.2241 13.75985120727879
SL-8 R/B                
1 21938U 92020B   26203.12642000 -.00000013  00000+0 -28732-4 0  9995
2 21938  82.9275  53.8997 0027775 283.3133 197.4979 13.75549763719610
USA 81                  
1 21949U 92023A   26203.13301164  .00000122  00000+0  37813-4 0  9993
2 21949  85.0047  53.8317 0001667  65.1691 294.9675 14.32406217114037
COSMOS 2219             
1 22219U 92076A   26203.13478088 -.00000287  00000+0 -12577-3 0  9995
2 22219  71.0605  97.0173 0018666 347.1838  12.8807 14.14105971737382
SL-16 R/B               
1 22220U 92076B   26203.18936228 -.00000231  00000+0 -91211-4 0  9999
2 22220  70.9994 265.0483 0015011 253.1866 174.0356 14.16877311740887
COSMOS 2221             
1 22236U 92080A   26203.30787706  .00001296  00000+0  11118-3 0  9997
2 22236  82.5053 150.1166 0015948  98.5835 261.7195 14.96618782800927
SL-16 R/B               
1 22285U 92093B   26203.08244619 -.00000174  00000+0 -64568-4 0  9995
2 22285  71.0211  82.1371 0002174 114.7847 245.3503 14.15463375732172
COSMOS 2228             
1 22286U 92094A   26203.23149351  .00001297  00000+0  10826-3 0  9993
2 22286  82.5184 108.4752 0016850 203.9586 156.0855 14.97690227796199
SL-16 R/B               
1 22566U 93016B   26202.64215518  .00000253  00000+0  15439-3 0  9998
2 22566  71.0086 293.8403 0008504 126.4278 233.7631 14.15316576721128
COSMOS 2242             
1 22626U 93024A   26203.27389335  .00001282  00000+0  10891-3 0  9993
2 22626  82.5203 137.9749 0015174 207.1557 152.8874 14.96999842800526
SL-16 R/B               
1 22803U 93059B   26203.07423273  .00000233  00000+0  13908-3 0  9993
2 22803  70.9902  87.7342 0017077 358.1872   1.9187 14.17251033698579
ARIANE 40 R/B           
1 22830U 93061H   26203.18916408  .00000107  00000+0  55032-4 0  9990
2 22830  98.4800 269.3160 0009679 242.5300 117.4901 14.32920404713362
COSMOS 2278             
1 23087U 94023A   26203.18398131  .00000245  00000+0  15267-3 0  9999
2 23087  71.0515 253.7034 0009251 195.2906 164.7939 14.14395689663828
SL-16 R/B               
1 23088U 94023B   26203.17009760  .00000347  00000+0  20391-3 0  9993
2 23088  70.9999 148.4642 0001223  99.4770 260.6491 14.15028651665119
SL-16 R/B               
1 23343U 94074B   26203.04492001  .00000349  00000+0  53171-4 0  9998
2 23343  97.6984 228.3118 0007617 134.5624 286.5042 14.79528667707119
